OBJECT_NAME,OBJECT_ID,EPOCH,MEAN_MOTION,ECCENTRICITY,INCLINATION,RA_OF_ASC_NODE,ARG_OF_PERICENTER,MEAN_ANOMALY,EPHEMERIS_TYPE,CLASSIFICATION_TYPE,NORAD_CAT_ID,ELEMENT_SET_NO,REV_AT_EPOCH,BSTAR,MEAN_MOTION_DOT,MEAN_MOTION_DDOT
GSAT0216 (GALILEO 20),2017-079B,2026-06-26T02:31:50.584512,1.70474721,.00046591,55.0717,221.2611,276.6161,83.4222,0,U,43056,999,5315,0,.62E-6,0
GSAT0217 (GALILEO 21),2017-079C,2026-06-26T07:49:47.498016,1.70474719,.0003945,55.0685,221.2528,287.8828,72.1663,0,U,43057,999,5314,0,.63E-6,0
GSAT0218 (GALILEO 22),2017-079D,2026-06-27T03:11:22.833024,1.70474654,.00055847,55.0696,221.2282,273.8627,86.1684,0,U,43058,999,5318,0,.66E-6,0
BEIDOU-3 M7 (C27),2018-003A,2026-06-27T13:15:59.747040,1.86228247,.0004918,54.3179,301.9527,95.2861,264.7663,0,U,43107,999,5754,0,-.94E-6,0
BEIDOU-3 M8 (C28),2018-003B,2026-06-26T10:09:48.504384,1.86231146,.0002414,54.3115,301.9738,260.4208,99.5455,0,U,43108,999,5753,0,-.102E-5,0
BEIDOU-3 M4 (C22),2018-018A,2026-06-25T19:01:22.856160,1.86231340,.0007547,56.6586,62.8641,21.9749,338.0980,0,U,43207,999,5690,0,-.89E-6,0
BEIDOU-3 M3 (C21),2018-018B,2026-06-24T05:57:27.884160,1.86231188,.00083319,56.6570,62.9189,342.5104,17.4973,0,U,43208,999,5687,0,-.95E-6,0
BEIDOU-3 M9 (C29),2018-029A,2026-06-25T12:57:37.714176,1.86228508,.000094,54.1853,299.6556,160.1846,199.8137,0,U,43245,999,5605,0,-.104E-5,0
BEIDOU-3 M10 (C30),2018-029B,2026-06-26T13:09:29.023776,1.86229311,.00038094,54.1821,299.6470,41.5678,318.4573,0,U,43246,999,5605,0,-.98E-6,0
IRNSS-1I,2018-035A,2026-06-24T19:11:38.629824,1.00275960,.00176215,28.7725,74.0767,182.3144,359.3363,0,U,43286,999,3015,0,.66E-6,0
COSMOS 2527 (756),2018-053A,2026-06-26T00:00:57.081024,2.13102108,.00068737,65.5828,73.6132,236.8993,123.0709,0,U,43508,999,6246,0,-.62E-6,0
BEIDOU-2 IGSO-7 (C16),2018-057A,2026-06-26T12:08:29.940576,1.00249004,.0104768,55.1970,162.9757,237.9790,164.9478,0,U,43539,999,2922,0,-.28E-6,0
GSAT0221 (GALILEO 25),2018-060A,2026-06-27T00:53:07.767744,1.70476269,.000252,57.1661,341.5145,298.2100,61.7583,0,U,43564,999,4933,0,-.94E-6,0
GSAT0222 (GALILEO 26),2018-060B,2026-06-25T11:55:24.810816,1.70476000,.0002086,57.1695,341.5596,244.5899,115.3843,0,U,43565,999,4935,0,-.97E-6,0
GSAT0219 (GALILEO 23),2018-060C,2026-06-26T07:18:09.641664,1.70476218,.0001792,57.1694,341.5394,314.3403,45.6398,0,U,43566,999,4934,0,-.96E-6,0
GSAT0220 (GALILEO 24),2018-060D,2026-06-26T12:36:23.835168,1.70476256,.00019251,57.1682,341.5331,306.9485,53.0284,0,U,43567,999,4933,0,-.95E-6,0
BEIDOU-3 M5 (C23),2018-062A,2026-06-26T05:38:53.016576,1.86228770,.0005829,54.0859,181.9962,291.5726,68.3953,0,U,43581,999,5380,0,.97E-6,0
BEIDOU-3 M6 (C24),2018-062B,2026-06-26T02:22:20.571744,1.86228182,.00050576,54.0857,181.9897,9.2241,350.8155,0,U,43582,999,5380,0,.98E-6,0
BEIDOU-3 M12 (C26),2018-067A,2026-06-26T00:53:39.683040,1.86227758,.0007828,54.1810,180.7397,29.5974,330.4748,0,U,43602,999,5328,0,.98E-6,0
BEIDOU-3 M11 (C25),2018-067B,2026-06-27T05:54:37.602720,1.86227242,.0004586,54.1781,180.6622,12.5758,347.4597,0,U,43603,999,5333,0,.88E-6,0
BEIDOU-3 M13 (C32),2018-072A,2026-06-27T04:49:31.545120,1.86231358,.0006973,56.6337,62.3287,330.8410,29.1676,0,U,43622,999,5284,0,-.78E-6,0
BEIDOU-3 M14 (C33),2018-072B,2026-06-25T23:49:19.291296,1.86231224,.0006093,56.6345,62.3631,4.7501,355.2976,0,U,43623,999,5281,0,-.88E-6,0
BEIDOU-3 M16 (C35),2018-078A,2026-06-27T05:19:11.418816,1.86232473,.0007015,54.0801,299.6342,40.7996,319.2507,0,U,43647,999,5234,0,-.93E-6,0
BEIDOU-3 M15 (C34),2018-078B,2026-06-26T06:38:56.414976,1.86232565,.0003991,54.0766,299.6676,57.9517,302.0826,0,U,43648,999,5234,0,-.1E-5,0
BEIDOU-3 G1 (C59),2018-085A,2026-06-27T12:32:38.721696,1.00271097,.0008566,2.8946,97.0970,351.8070,174.8142,0,U,43683,999,2816,0,-.1E-5,0
COSMOS 2529 (757),2018-086A,2026-06-26T02:19:47.979840,2.13102017,.0012114,64.2953,192.2935,256.4695,103.4491,0,U,43687,999,5947,0,.106E-5,0
BEIDOU-3 M17 (C36),2018-093A,2026-06-26T12:03:21.339648,1.86228594,.0010136,54.1697,181.9800,292.4713,110.1482,0,U,43706,999,5171,0,.95E-6,0
BEIDOU-3 M18 (C37),2018-093B,2026-06-26T07:15:06.898752,1.86226640,.0008135,54.1702,181.9788,321.1510,38.8204,0,U,43707,999,5170,0,.97E-6,0
GPS BIII-1  (PRN 04),2018-109A,2026-06-27T00:09:15.497568,2.00562310,.00384483,55.6876,91.7992,197.7271,175.9628,0,U,43873,999,5527,0,-.61E-6,0
BEIDOU-3 IGSO-1 (C38),2019-023A,2026-06-24T12:59:44.316960,1.00289953,.00257477,58.7053,37.5725,224.9564,323.4804,0,U,44204,999,728,0,-.226E-5,0
BEIDOU-2 G8 (C01),2019-027A,2026-06-27T13:11:33.286848,1.00268721,.0009873,1.6846,74.5245,285.0958,258.4021,0,U,44231,999,2618,0,-.238E-5,0
